{"type": "FeatureCollection", "features": [{"type": "Feature", "properties": {"norad_id": 22490, "name": "SCD 1", "group": "resource", "lat": 23.451004606133804, "lon": 87.24459093348003, "alt_km": 746.6674234575703, "timestamp": "2025-12-03T10:52:57.106067+00:00", "meta": {"OBJECT_NAME": "SCD 1", "OBJECT_ID": "1993-009B", "EPOCH": "2025-12-03T02:19:49.859040", "MEAN_MOTION": 14.45987403, "ECCENTRICITY": 0.0041827, "INCLINATION": 24.971, "RA_OF_ASC_NODE": 338.2102, "ARG_OF_PERICENTER": 222.4494, "MEAN_ANOMALY": 188.6826, "EPHEMERIS_TYPE": 0, "CLASSIFICATION_TYPE": "U", "NORAD_CAT_ID": 22490, "ELEMENT_SET_NO": 999, "REV_AT_EPOCH": 73270, "BSTAR": 0.00012677, "MEAN_MOTION_DOT": 6.5e-06, "MEAN_MOTION_DDOT": 0}, "tle": {"line1": "1 22490U 93009B   25337.09710485  .00000650  00000+0  12677-3 0  9998", "line2": "2 22490  24.9710 338.2102 0041827 222.4494 188.6826 14.45987403732703"}}, "geometry": {"type": "Point", "coordinates": [87.24459093348003, 23.451004606133804]}}, {"type": "Feature", "properties": {"norad_id": 25397, "name": "TECHSAT 1B (GO-32)", "group": "resource", "lat": 77.97948908848888, "lon": -171.51153061740914, "alt_km": 801.8173824180221, "timestamp": "2025-12-03T10:52:57.106098+00:00", "meta": {"OBJECT_NAME": "TECHSAT 1B (GO-32)", "OBJECT_ID": "1998-043D", "EPOCH": "2025-12-02T22:37:23.051424", "MEAN_MOTION": 14.24372494, "ECCENTRICITY": 0.0002246, "INCLINATION": 98.9913, "RA_OF_ASC_NODE": 319.9291, "ARG_OF_PERICENTER": 73.6007, "MEAN_ANOMALY": 286.5418, "EPHEMERIS_TYPE": 0, "CLASSIFICATION_TYPE": "U", "NORAD_CAT_ID": 25397, "ELEMENT_SET_NO": 999, "REV_AT_EPOCH": 42339, "BSTAR": 8.0125e-05, "MEAN_MOTION_DOT": 1.39e-06, "MEAN_MOTION_DDOT": 0}, "tle": {"line1": "1 25397U 98043D   25336.94262791  .00000139  00000+0  80125-4 0  9991", "line2": "2 25397  98.9913 319.9291 0002246  73.6007 286.5418 14.24372494423393"}}, "geometry": {"type": "Point", "coordinates": [-171.51153061740914, 77.97948908848888]}}, {"type": "Feature", "properties": {"norad_id": 25504, "name": "SCD 2", "group": "resource", "lat": 7.854277190771233, "lon": 1.9377573584769074, "alt_km": 730.4521784211192, "timestamp": "2025-12-03T10:52:57.106114+00:00", "meta": {"OBJECT_NAME": "SCD 2", "OBJECT_ID": "1998-060A", "EPOCH": "2025-12-02T08:22:08.651136", "MEAN_MOTION": 14.45414, "ECCENTRICITY": 0.00167262, "INCLINATION": 24.9937, "RA_OF_ASC_NODE": 205.9699, "ARG_OF_PERICENTER": 202.5525, "MEAN_ANOMALY": 318.5622, "EPHEMERIS_TYPE": 0, "CLASSIFICATION_TYPE": "U", "NORAD_CAT_ID": 25504, "ELEMENT_SET_NO": 999, "REV_AT_EPOCH": 43181, "BSTAR": 9.8916166e-05, "MEAN_MOTION_DOT": 5.36e-06, "MEAN_MOTION_DDOT": 0}, "tle": {"line1": "1 25504U 98060A   25336.34871124  .00000536  00000+0  98916-4 0  9998", "line2": "2 25504  24.9937 205.9699 0016726 202.5525 318.5622 14.45414000431812"}}, "geometry": {"type": "Point", "coordinates": [1.9377573584769074, 7.854277190771233]}}, {"type": "Feature", "properties": {"norad_id": 25757, "name": "DLR-TUBSAT", "group": "resource", "lat": 74.9828239638427, "lon": 176.27867400761008, "alt_km": 715.5357688164613, "timestamp": "2025-12-03T10:52:57.106128+00:00", "meta": {"OBJECT_NAME": "DLR-TUBSAT", "OBJECT_ID": "1999-029B", "EPOCH": "2025-12-03T05:27:06.499584", "MEAN_MOTION": 14.52351559, "ECCENTRICITY": 0.0013388, "INCLINATION": 98.6555, "RA_OF_ASC_NODE": 321.4478, "ARG_OF_PERICENTER": 222.7864, "MEAN_ANOMALY": 137.2289, "EPHEMERIS_TYPE": 0, "CLASSIFICATION_TYPE": "U", "NORAD_CAT_ID": 25757, "ELEMENT_SET_NO": 999, "REV_AT_EPOCH": 40480, "BSTAR": 6.0372e-05, "MEAN_MOTION_DOT": 1.97e-06, "MEAN_MOTION_DDOT": 0}, "tle": {"line1": "1 25757U 99029B   25337.22715856  .00000197  00000+0  60372-4 0  9999", "line2": "2 25757  98.6555 321.4478 0013388 222.7864 137.2289 14.52351559404807"}}, "geometry": {"type": "Point", "coordinates": [176.27867400761008, 74.9828239638427]}}, {"type": "Feature", "properties": {"norad_id": 25994, "name": "TERRA", "group": "resource", "lat": -59.26083938373716, "lon": -164.1592268423715, "alt_km": 698.6273563134937, "timestamp": "2025-12-03T10:52:57.106141+00:00", "meta": {"OBJECT_NAME": "TERRA", "OBJECT_ID": "1999-068A", "EPOCH": "2025-12-03T03:19:40.019232", "MEAN_MOTION": 14.60934154, "ECCENTRICITY": 0.0003395, "INCLINATION": 97.9762, "RA_OF_ASC_NODE": 29.1747, "ARG_OF_PERICENTER": 117.151, "MEAN_ANOMALY": 268.409, "EPHEMERIS_TYPE": 0, "CLASSIFICATION_TYPE": "U", "NORAD_CAT_ID": 25994, "ELEMENT_SET_NO": 999, "REV_AT_EPOCH": 38098, "BSTAR": 0.0001522, "MEAN_MOTION_DOT": 7.01e-06, "MEAN_MOTION_DDOT": 0}, "tle": {"line1": "1 25994U 99068A   25337.13865763  .00000701  00000+0  15220-3 0  9990", "line2": "2 25994  97.9762  29.1747 0003395 117.1510 268.4090 14.60934154380981"}}, "geometry": {"type": "Point", "coordinates": [-164.1592268423715, -59.26083938373716]}}, {"type": "Feature", "properties": {"norad_id": 27004, "name": "MAROC-TUBSAT", "group": "resource", "lat": 14.564143987961852, "lon": 143.16423047189636, "alt_km": 999.3725387360792, "timestamp": "2025-12-03T10:52:57.106154+00:00", "meta": {"OBJECT_NAME": "MAROC-TUBSAT", "OBJECT_ID": "2001-056D", "EPOCH": "2025-12-03T00:51:45.195264", "MEAN_MOTION": 13.70252146, "ECCENTRICITY": 0.0019107, "INCLINATION": 99.7912, "RA_OF_ASC_NODE": 145.311, "ARG_OF_PERICENTER": 285.989, "MEAN_ANOMALY": 190.2699, "EPHEMERIS_TYPE": 0, "CLASSIFICATION_TYPE": "U", "NORAD_CAT_ID": 27004, "ELEMENT_SET_NO": 999, "REV_AT_EPOCH": 19932, "BSTAR": 3.3076e-05, "MEAN_MOTION_DOT": -1.8e-07, "MEAN_MOTION_DDOT": 0}, "tle": {"line1": "1 27004U 01056D   25337.03593976 -.00000018  00000+0  33076-4 0  9999", "line2": "2 27004  99.7912 145.3110 0019107 285.9890 190.2699 13.70252146199327"}}, "geometry": {"type": "Point", "coordinates": [143.16423047189636, 14.564143987961852]}}, {"type": "Feature", "properties": {"norad_id": 27424, "name": "AQUA", "group": "resource", "lat": 80.62415011198956, "lon": -125.34858007149083, "alt_km": 679.5390811708667, "timestamp": "2025-12-03T10:52:57.106166+00:00", "meta": {"OBJECT_NAME": "AQUA", "OBJECT_ID": "2002-022A", "EPOCH": "2025-12-03T04:29:29.314176", "MEAN_MOTION": 14.61770701, "ECCENTRICITY": 7.46e-05, "INCLINATION": 98.4024, "RA_OF_ASC_NODE": 297.9119, "ARG_OF_PERICENTER": 108.0837, "MEAN_ANOMALY": 17.2527, "EPHEMERIS_TYPE": 0, "CLASSIFICATION_TYPE": "U", "NORAD_CAT_ID": 27424, "ELEMENT_SET_NO": 999, "REV_AT_EPOCH": 25463, "BSTAR": 0.0003102, "MEAN_MOTION_DOT": 1.498e-05, "MEAN_MOTION_DDOT": 0}, "tle": {"line1": "1 27424U 02022A   25337.18714484  .00001498  00000+0  31020-3 0  9992", "line2": "2 27424  98.4024 297.9119 0000746 108.0837  17.2527 14.61770701254638"}}, "geometry": {"type": "Point", "coordinates": [-125.34858007149083, 80.62415011198956]}}, {"type": "Feature", "properties": {"norad_id": 28051, "name": "IRS-P6 (RESOURCESAT-1)", "group": "resource", "lat": 81.63664636637176, "lon": -61.17555098200463, "alt_km": 786.7274403399488, "timestamp": "2025-12-03T10:52:57.106176+00:00", "meta": {"OBJECT_NAME": "IRS-P6 (RESOURCESAT-1)", "OBJECT_ID": "2003-046A", "EPOCH": "2025-12-03T05:48:43.284096", "MEAN_MOTION": 14.36067238, "ECCENTRICITY": 0.0063645, "INCLINATION": 98.2191, "RA_OF_ASC_NODE": 18.0888, "ARG_OF_PERICENTER": 209.2969, "MEAN_ANOMALY": 228.2094, "EPHEMERIS_TYPE": 0, "CLASSIFICATION_TYPE": "U", "NORAD_CAT_ID": 28051, "ELEMENT_SET_NO": 999, "REV_AT_EPOCH": 15240, "BSTAR": 0.00011756, "MEAN_MOTION_DOT": 3.09e-06, "MEAN_MOTION_DDOT": 0}, "tle": {"line1": "1 28051U 03046A   25337.24216764  .00000309  00000+0  11756-3 0  9995", "line2": "2 28051  98.2191  18.0888 0063645 209.2969 228.2094 14.36067238152401"}}, "geometry": {"type": "Point", "coordinates": [-61.17555098200463, 81.63664636637176]}}, {"type": "Feature", "properties": {"norad_id": 28220, "name": "SHIYAN-1 (SY-1)", "group": "resource", "lat": 43.90142189175017, "lon": -133.87824059318686, "alt_km": 481.97070734760473, "timestamp": "2025-12-03T10:52:57.106188+00:00", "meta": {"OBJECT_NAME": "SHIYAN-1 (SY-1)", "OBJECT_ID": "2004-012A", "EPOCH": "2025-12-03T04:00:14.321952", "MEAN_MOTION": 15.27750794, "ECCENTRICITY": 0.0006339, "INCLINATION": 97.8957, "RA_OF_ASC_NODE": 38.143, "ARG_OF_PERICENTER": 0.9771, "MEAN_ANOMALY": 359.1478, "EPHEMERIS_TYPE": 0, "CLASSIFICATION_TYPE": "U", "NORAD_CAT_ID": 28220, "ELEMENT_SET_NO": 999, "REV_AT_EPOCH": 18110, "BSTAR": 0.0006145, "MEAN_MOTION_DOT": 0.00016607, "MEAN_MOTION_DDOT": 0}, "tle": {"line1": "1 28220U 04012A   25337.16683243  .00016607  00000+0  61450-3 0  9992", "line2": "2 28220  97.8957  38.1430 0006339   0.9771 359.1478 15.27750794181100"}}, "geometry": {"type": "Point", "coordinates": [-133.87824059318686, 43.90142189175017]}}, {"type": "Feature", "properties": {"norad_id": 28376, "name": "AURA", "group": "resource", "lat": -64.72669052364958, "lon": 89.58815888981823, "alt_km": 698.1459674742837, "timestamp": "2025-12-03T10:52:57.106200+00:00", "meta": {"OBJECT_NAME": "AURA", "OBJECT_ID": "2004-026A", "EPOCH": "2025-12-03T03:11:05.183232", "MEAN_MOTION": 14.60908511, "ECCENTRICITY": 0.0001082, "INCLINATION": 98.317, "RA_OF_ASC_NODE": 287.3156, "ARG_OF_PERICENTER": 90.8294, "MEAN_ANOMALY": 269.3031, "EPHEMERIS_TYPE": 0, "CLASSIFICATION_TYPE": "U", "NORAD_CAT_ID": 28376, "ELEMENT_SET_NO": 999, "REV_AT_EPOCH": 13758, "BSTAR": 0.00032115, "MEAN_MOTION_DOT": 1.524e-05, "MEAN_MOTION_DDOT": 0}, "tle": {"line1": "1 28376U 04026A   25337.13269888  .00001524  00000+0  32115-3 0  9999", "line2": "2 28376  98.3170 287.3156 0001082  90.8294 269.3031 14.60908511137584"}}, "geometry": {"type": "Point", "coordinates": [89.58815888981823, -64.72669052364958]}}]}